[{"OBJECT_NAME":"EMISAT","OBJECT_ID":"2019-018A","EPOCH":"2026-03-09T23:07:44.271840","MEAN_MOTION":14.43625084,"ECCENTRICITY":0.00191389,"INCLINATION":98.4768,"RA_OF_ASC_NODE":128.257,"ARG_OF_PERICENTER":153.4906,"MEAN_ANOMALY":206.7268,"EPHEMERIS_TYPE":0,"CLASSIFICATION_TYPE":"U","NORAD_CAT_ID":44078,"ELEMENT_SET_NO":999,"REV_AT_EPOCH":36574,"BSTAR":5.8527741e-5,"MEAN_MOTION_DOT":1.55e-6,"MEAN_MOTION_DDOT":0},{"OBJECT_NAME":"DMSP 5D-2 F11 DEB","OBJECT_ID":"1991-082AQ","EPOCH":"2026-03-07T11:52:18.080544","MEAN_MOTION":14.48838973,"ECCENTRICITY":0.00207323,"INCLINATION":98.6699,"RA_OF_ASC_NODE":156.0714,"ARG_OF_PERICENTER":273.6393,"MEAN_ANOMALY":150.9217,"EPHEMERIS_TYPE":0,"CLASSIFICATION_TYPE":"U","NORAD_CAT_ID":28327,"ELEMENT_SET_NO":999,"REV_AT_EPOCH":66183,"BSTAR":0.0024731252,"MEAN_MOTION_DOT":9.336e-5,"MEAN_MOTION_DDOT":0}]
